NORAD_CAT_ID,OBJECT_NAME,OBJECT_TYPE,EPOCH,MEAN_MOTION,ECCENTRICITY,INCLINATION,RA_OF_ASC_NODE,ARG_OF_PERICENTER,MEAN_ANOMALY,BSTAR,MEAN_MOTION_DOT,MEAN_MOTION_DDOT,TLE_LINE0,TLE_LINE1,TLE_LINE2,SEMIMAJOR_AXIS,PERIOD,APOGEE,PERIGEE,DECAYED
55640.0,STARLINK-5069,PAYLOAD,2023-12-15 11:48:35,14.98357879,0.0002966,70.0012,79.825,258.1289,101.9537,-0.00052806,-6.393e-05,0.0,0 STARLINK-5069,1 55640U 23021N   23349.49207585 -.00006393  00000-0 -52806-3 0  9996,2 55640  70.0012  79.8250 0002966 258.1289 101.9537 14.98357879 46389,6950.107,96.105,574.033,569.91,0.0
55640.0,STARLINK-5069,PAYLOAD,2023-12-15 13:24:43,14.9832811,0.0002892,70.0012,79.6568,255.1737,104.9102,-5.2179e-05,-7.15e-06,0.0,0 STARLINK-5069,1 55640U 23021N   23349.55884107 -.00000715  00000-0 -52179-4 0  9990,2 55640  70.0012  79.6568 0002892 255.1737 104.9102 14.98328110 46693,6950.199,96.107,574.074,570.054,0.0
55640.0,STARLINK-5069,PAYLOAD,2023-12-15 16:36:59,14.98340343,0.0002734,70.001,79.3191,256.4486,103.6369,-0.00028235,-3.461e-05,0.0,0 STARLINK-5069,1 55640U 23021N   23349.69235886 -.00003461  00000-0 -28235-3 0  9995,2 55640  70.0010  79.3191 0002734 256.4486 103.6369 14.98340343 46413,6950.161,96.106,573.926,570.126,0.0
55640.0,STARLINK-5069,PAYLOAD,2023-12-16 11:50:37,14.98323768,0.0003399,70.0001,77.298,270.1932,89.8837,-2.9273e-05,-4.42e-06,0.0,0 STARLINK-5069,1 55640U 23021N   23350.49348449 -.00000442  00000-0 -29273-4 0  9995,2 55640  70.0001  77.2980 0003399 270.1932  89.8837 14.98323768 46533,6950.212,96.107,574.44,569.715,0.0
55640.0,STARLINK-5069,PAYLOAD,2023-12-16 13:26:45,14.98317736,0.0003125,70.0006,77.1303,257.4337,102.6472,0.00013638,1.534e-05,0.0,0 STARLINK-5069,1 55640U 23021N   23350.56024329  .00001534  00000-0  13638-3 0  9999,2 55640  70.0006  77.1303 0003125 257.4337 102.6472 14.98317736 46841,6950.231,96.108,574.268,569.924,0.0
55640.0,STARLINK-5069,PAYLOAD,2023-12-16 15:02:52,14.9833037,0.0002933,70.0007,76.963,272.1373,87.945,-3.0327e-06,-1.29e-06,0.0,0 STARLINK-5069,1 55640U 23021N   23350.62700129 -.00000129  00000-0 -30327-5 0  9992,2 55640  70.0007  76.9630 0002933 272.1373  87.9450 14.98330370 46550,6950.192,96.107,574.095,570.018,0.0
55640.0,STARLINK-5069,PAYLOAD,2023-12-17 13:28:45,14.98325011,0.0002934,70.0017,74.6071,254.8069,105.2766,0.00012063,1.346e-05,0.0,0 STARLINK-5069,1 55640U 23021N   23351.56164024  .00001346  00000-0  12063-3 0  9999,2 55640  70.0017  74.6071 0002934 254.8069 105.2766 14.98325011 46993,6950.208,96.107,574.113,570.034,0.0
55640.0,STARLINK-5069,PAYLOAD,2023-12-17 15:04:53,14.98329513,0.0002856,70.0017,74.4393,253.4157,106.6689,7.1658e-05,7.62e-06,0.0,0 STARLINK-5069,1 55640U 23021N   23351.62839889  .00000762  00000-0  71658-4 0  9991,2 55640  70.0017  74.4393 0002856 253.4157 106.6689 14.98329513 46703,6950.194,96.107,574.044,570.074,0.0
55640.0,STARLINK-5069,PAYLOAD,2023-12-18 13:30:45,14.98337868,0.000297,70.001,72.0816,260.0083,100.0741,0.00011425,1.271e-05,0.0,0 STARLINK-5069,1 55640U 23021N   23352.56302959  .00001271  00000-0  11425-3 0  9999,2 55640  70.0010  72.0816 0002970 260.0083 100.0741 14.98337868 47147,6950.169,96.106,574.098,569.969,0.0
55640.0,STARLINK-5069,PAYLOAD,2023-12-18 15:06:53,14.98338664,0.0002964,70.0011,71.9134,259.7357,100.3468,0.00012022,1.342e-05,0.0,0 STARLINK-5069,1 55640U 23021N   23352.62978855  .00001342  00000-0  12022-3 0  9993,2 55640  70.0011  71.9134 0002964 259.7357 100.3468 14.98338664 46852,6950.166,96.106,574.091,569.971,0.0
55640.0,STARLINK-5069,PAYLOAD,2023-12-19 11:56:39,14.98328574,0.0002737,70.0022,69.7274,243.4604,116.6275,-4.5522e-05,-6.36e-06,0.0,0 STARLINK-5069,1 55640U 23021N   23353.49767749 -.00000636  00000-0 -45522-4 0  9996,2 55640  70.0022  69.7274 0002737 243.4604 116.6275 14.98328574 46986,6950.197,96.107,573.965,570.16,0.0
55640.0,STARLINK-5069,PAYLOAD,2023-12-19 13:32:47,14.98326857,0.0002753,70.002,69.5588,245.0371,115.0502,-6.621e-05,-8.83e-06,0.0,0 STARLINK-5069,1 55640U 23021N   23353.56443926 -.00000883  00000-0 -66210-4 0  9993,2 55640  70.0020  69.5588 0002753 245.0371 115.0502 14.98326857 47290,6950.203,96.107,573.981,570.154,0.0
55640.0,STARLINK-5069,PAYLOAD,2023-12-20 11:58:40,14.98327035,0.000266,70.0017,67.2017,246.3278,113.7602,-0.0001054,-1.35e-05,0.0,0 STARLINK-5069,1 55640U 23021N   23354.49908193 -.00001350  00000-0 -10540-3 0  9992,2 55640  70.0017  67.2017 0002660 246.3278 113.7602 14.98327035 47133,6950.202,96.107,573.916,570.218,0.0
55640.0,STARLINK-5069,PAYLOAD,2023-12-20 13:34:48,14.98327551,0.0002649,70.0018,67.0336,246.3105,113.7776,-9.6537e-05,-1.244e-05,0.0,0 STARLINK-5069,1 55640U 23021N   23354.56584149 -.00001244  00000-0 -96537-4 0  9994,2 55640  70.0018  67.0336 0002649 246.3105 113.7776 14.98327551 47441,6950.2,96.107,573.907,570.224,0.0
55640.0,STARLINK-5069,PAYLOAD,2023-12-20 15:10:56,14.98326798,0.0002638,70.0016,66.8647,249.1793,110.9083,-0.00010195,-1.309e-05,0.0,0 STARLINK-5069,1 55640U 23021N   23354.63260236 -.00001309  00000-0 -10195-3 0  9997,2 55640  70.0016  66.8647 0002638 249.1793 110.9083 14.98326798 47456,6950.203,96.107,573.901,570.234,0.0
55640.0,STARLINK-5069,PAYLOAD,2023-12-21 12:00:40,14.98334576,0.00027,70.0008,64.6747,261.1919,98.8934,0.00013699,1.542e-05,0.0,0 STARLINK-5069,1 55640U 23021N   23355.50047044  .00001542  00000-0  13699-3 0  9993,2 55640  70.0008  64.6747 0002700 261.1919  98.8934 14.98334576 47281,6950.179,96.107,573.92,570.167,0.0
55640.0,STARLINK-5069,PAYLOAD,2023-12-21 13:36:48,14.98336177,0.0002679,70.0009,64.5067,261.7784,98.3072,0.0001528,1.731e-05,0.0,0 STARLINK-5069,1 55640U 23021N   23355.56722883  .00001731  00000-0  15280-3 0  9998,2 55640  70.0009  64.5067 0002679 261.7784  98.3072 14.98336177 47598,6950.174,96.107,573.901,570.177,0.0
55640.0,STARLINK-5069,PAYLOAD,2023-12-21 15:12:56,14.98336888,0.0002683,70.001,64.3384,262.535,97.5505,0.00015706,1.782e-05,0.0,0 STARLINK-5069,1 55640U 23021N   23355.63398807  .00001782  00000-0  15706-3 0  9990,2 55640  70.0010  64.3384 0002683 262.5350  97.5505 14.98336888 47606,6950.172,96.107,573.901,570.172,0.0
55640.0,STARLINK-5069,PAYLOAD,2023-12-22 12:02:41,14.98334258,0.0002384,70.0016,62.1505,244.8204,115.2708,0.00014575,1.647e-05,0.0,0 STARLINK-5069,1 55640U 23021N   23356.50186753  .00001647  00000-0  14575-3 0  9995,2 55640  70.0016  62.1505 0002384 244.8204 115.2708 14.98334258 47435,6950.18,96.107,573.702,570.388,0.0
55640.0,STARLINK-5069,PAYLOAD,2023-12-22 13:38:49,14.98337146,0.000241,70.0018,61.983,244.231,115.8601,0.00014452,1.632e-05,0.0,0 STARLINK-5069,1 55640U 23021N   23356.56862533  .00001632  00000-0  14452-3 0  9996,2 55640  70.0018  61.9830 0002410 244.2310 115.8601 14.98337146 47748,6950.171,96.107,573.711,570.361,0.0
55640.0,STARLINK-5069,PAYLOAD,2023-12-23 12:04:43,14.9832302,0.0002311,70.0018,59.6262,247.6174,112.474,-0.00019069,-2.367e-05,0.0,0 STARLINK-5069,1 55640U 23021N   23357.50328200 -.00002367  00000-0 -19069-3 0  9996,2 55640  70.0018  59.6262 0002311 247.6174 112.4740 14.98323020 47581,6950.214,96.107,573.686,570.473,0.0
55640.0,STARLINK-5069,PAYLOAD,2023-12-23 13:40:51,14.98321381,0.0002287,70.0017,59.4575,244.648,115.4442,-0.0001784,-2.22e-05,0.0,0 STARLINK-5069,1 55640U 23021N   23357.57004291 -.00002220  00000-0 -17840-3 0  9997,2 55640  70.0017  59.4575 0002287 244.6480 115.4442 14.98321381 47898,6950.22,96.108,573.674,570.495,0.0
55640.0,STARLINK-5069,PAYLOAD,2023-12-24 04:06:03,14.98328161,0.0002887,70.0,57.9405,268.1887,91.8941,-0.00014703,-1.847e-05,0.0,0 STARLINK-5069,1 55640U 23021N   23358.17087893 -.00001847  00000-0 -14703-3 0  9992,2 55640  70.0000  57.9405 0002887 268.1887  91.8941 14.98328161 47684,6950.199,96.107,574.07,570.057,0.0
55640.0,STARLINK-5069,PAYLOAD,2023-12-24 13:42:51,14.98334759,0.0002699,70.0003,56.9309,261.7906,98.2947,-5.5628e-05,-7.57e-06,0.0,0 STARLINK-5069,1 55640U 23021N   23358.57143186 -.00000757  00000-0 -55628-4 0  9995,2 55640  70.0003  56.9309 0002699 261.7906  98.2947 14.98334759 48049,6950.178,96.107,573.919,570.167,0.0
55640.0,STARLINK-5069,PAYLOAD,2023-12-25 13:44:52,14.98327709,0.0002613,70.0004,54.4063,265.757,94.329,0.00012544,1.404e-05,0.0,0 STARLINK-5069,1 55640U 23021N   23359.57283267  .00001404  00000-0  12544-3 0  9998,2 55640  70.0004  54.4063 0002613 265.7570  94.3290 14.98327709 48198,6950.2,96.107,573.881,570.249,0.0
55640.0,STARLINK-5069,PAYLOAD,2023-12-26 13:46:54,14.98327209,0.0002475,70.0009,51.8819,262.6763,97.4115,1.3544e-05,6.9e-07,0.0,0 STARLINK-5069,1 55640U 23021N   23360.57423824  .00000069  00000-0  13544-4 0  9993,2 55640  70.0009  51.8819 0002475 262.6763  97.4115 14.98327209 48341,6950.202,96.107,573.787,570.346,0.0
55640.0,STARLINK-5069,PAYLOAD,2023-12-27 10:36:38,14.98333547,0.000242,70.0012,49.6936,261.5476,98.5409,3.01e-05,2.66e-06,0.0,0 STARLINK-5069,1 55640U 23021N   23361.44211313  .00000266  00000-0  30100-4 0  9994,2 55640  70.0012  49.6936 0002420 261.5476  98.5409 14.98333547 48170,6950.182,96.107,573.729,570.365,0.0
55640.0,STARLINK-5069,PAYLOAD,2023-12-27 13:48:54,14.98334977,0.0002636,70.0004,49.3565,263.8008,96.285,2.8637e-05,2.49e-06,0.0,0 STARLINK-5069,1 55640U 23021N   23361.57563140  .00000249  00000-0  28637-4 0  9999,2 55640  70.0004  49.3565 0002636 263.8008  96.2850 14.98334977 48499,6950.178,96.107,573.875,570.21,0.0
55640.0,STARLINK-5069,PAYLOAD,2023-12-28 12:14:47,14.98327116,0.0002601,70.0002,46.9984,269.4202,90.6659,3.8439e-05,3.66e-06,0.0,0 STARLINK-5069,1 55640U 23021N   23362.51027614  .00000366  00000-0  38439-4 0  9996,2 55640  70.0002  46.9984 0002601 269.4202  90.6659 14.98327116 48330,6950.202,96.107,573.875,570.259,0.0
55640.0,STARLINK-5069,PAYLOAD,2023-12-29 12:16:48,14.98325152,0.0002404,70.0004,44.4739,267.7387,92.3497,6.8445e-05,7.24e-06,0.0,0 STARLINK-5069,1 55640U 23021N   23363.51167739  .00000724  00000-0  68445-4 0  9998,2 55640  70.0004  44.4739 0002404 267.7387  92.3497 14.98325152 48785,6950.208,96.107,573.744,570.402,0.0
